FLOCK 4G-2              
1 62661U 25009BE  26068.66207492  .00013752  00000+0  51068-3 0  9995
2 62661  97.4044 151.2221 0003181 329.2677  30.8376 15.27675260121321
STARLINK-33898          
1 64002U 25101J   26068.18167243  .00035724  00000+0  13009-2 0  9990
2 64002  43.0071   1.1709 0002213 260.0031 100.0571 15.27592458 46975
